NORAD_CAT_ID,OBJECT_NAME,OBJECT_TYPE,EPOCH,MEAN_MOTION,ECCENTRICITY,INCLINATION,RA_OF_ASC_NODE,ARG_OF_PERICENTER,MEAN_ANOMALY,BSTAR,MEAN_MOTION_DOT,MEAN_MOTION_DDOT,TLE_LINE0,TLE_LINE1,TLE_LINE2,SEMIMAJOR_AXIS,PERIOD,APOGEE,PERIGEE,DECAYED
56778.0,STARLINK-6304,PAYLOAD,2023-11-12 12:00:02,15.63555942,0.0003387,69.9991,308.806,267.5195,291.1448,-0.010737,-0.00910281,0.0,0 STARLINK-6304,1 56778U 23078M   23316.50002315 -.00910281  00000-0 -10737-1 0  9996,2 56778  69.9991 308.8060 0003387 267.5195 291.1448 15.63555942 26236,6755.532,92.098,379.685,375.109,0.0
56778.0,STARLINK-6304,PAYLOAD,2023-11-12 14:00:01,15.63410901,0.0003542,69.9991,308.5739,266.2155,41.278,-0.011264,-0.00946021,0.0,0 STARLINK-6304,1 56778U 23078M   23316.58334491 -.00946021  00000-0 -11264-1 0  9994,2 56778  69.9991 308.5739 0003542 266.2155  41.2780 15.63410901  5832,6755.95,92.106,380.208,375.422,0.0
56778.0,STARLINK-6304,PAYLOAD,2023-11-12 22:00:00,15.6271542,0.0003549,69.9993,307.6462,261.1766,121.4326,-0.010486,-0.0086429,0.0,0 STARLINK-6304,1 56778U 23078M   23316.91667824 -.00864290  00000-0 -10486-1 0  9992,2 56778  69.9993 307.6462 0003549 261.1766 121.4326 15.62715420  5881,6757.954,92.147,382.218,377.421,0.0
56778.0,STARLINK-6304,PAYLOAD,2023-11-13 04:00:00,15.62272945,0.0003557,69.9997,306.9509,263.1136,85.3023,-0.01179,-0.00946851,0.0,0 STARLINK-6304,1 56778U 23078M   23317.16667824 -.00946851  00000-0 -11790-1 0  9993,2 56778  69.9997 306.9509 0003557 263.1136  85.3023 15.62272945 26347,6759.23,92.173,383.499,378.691,0.0
56778.0,STARLINK-6304,PAYLOAD,2023-11-13 14:00:01,15.61462043,0.0003228,69.9994,305.7935,265.2261,265.2407,-0.01236,-0.00960262,0.0,0 STARLINK-6304,1 56778U 23078M   23317.58334491 -.00960262  00000-0 -12360-1 0  9996,2 56778  69.9994 305.7935 0003228 265.2261 265.2407 15.61462043  5993,6761.57,92.221,385.618,381.252,0.0
56778.0,STARLINK-6304,PAYLOAD,2023-11-13 20:00:01,15.60905264,0.0003349,69.9995,305.0999,260.368,234.7603,-0.010962,-0.00843826,0.0,0 STARLINK-6304,1 56778U 23078M   23317.83334491 -.00843826  00000-0 -10962-1 0  9996,2 56778  69.9995 305.0999 0003349 260.3680 234.7603 15.60905264 26440,6763.178,92.254,387.308,382.778,0.0
56778.0,STARLINK-6304,PAYLOAD,2023-11-13 22:00:00,15.60761275,0.0003412,69.9996,304.8688,257.679,345.5559,-0.011316,-0.00864402,0.0,0 STARLINK-6304,1 56778U 23078M   23317.91667824 -.00864402  00000-0 -11316-1 0  9991,2 56778  69.9996 304.8688 0003412 257.6790 345.5559 15.60761275  6042,6763.594,92.263,387.767,383.151,0.0
56778.0,STARLINK-6304,PAYLOAD,2023-11-14 04:00:00,15.60310192,0.000333,69.9996,304.1757,262.7578,304.5293,-0.012598,-0.00938364,0.0,0 STARLINK-6304,1 56778U 23078M   23318.16667824 -.00938364  00000-0 -12598-1 0  9991,2 56778  69.9996 304.1757 0003330 262.7578 304.5293 15.60310192 26491,6764.897,92.289,389.015,384.51,0.0
56778.0,STARLINK-6304,PAYLOAD,2023-11-14 14:00:01,15.59498559,0.0003543,69.9993,303.0216,268.6675,117.7363,-0.013194,-0.00951412,0.0,0 STARLINK-6304,1 56778U 23078M   23318.58334491 -.00951412  00000-0 -13194-1 0  9990,2 56778  69.9993 303.0216 0003543 268.6675 117.7363 15.59498559  5935,6767.244,92.337,391.507,386.712,0.0
56778.0,STARLINK-6304,PAYLOAD,2023-11-14 22:00:00,15.58811847,0.0003506,69.9997,302.0993,264.8282,191.9922,-0.012353,-0.00874842,0.0,0 STARLINK-6304,1 56778U 23078M   23318.91667824 -.00874842  00000-0 -12353-1 0  9993,2 56778  69.9997 302.0993 0003506 264.8282 191.9922 15.58811847  5990,6769.232,92.378,393.47,388.723,0.0
56778.0,STARLINK-6304,PAYLOAD,2023-11-15 06:00:02,15.58166923,0.0003456,69.9999,301.1779,268.731,257.793,-0.013116,-0.00903668,0.0,0 STARLINK-6304,1 56778U 23078M   23319.25002315 -.00903668  00000-0 -13116-1 0  9996,2 56778  69.9999 301.1779 0003456 268.7310 257.7930 15.58166923 26668,6771.099,92.416,395.304,390.624,0.0
56778.0,STARLINK-6304,PAYLOAD,2023-11-15 14:00:01,15.57548667,0.0003399,69.9996,300.2574,265.9628,329.3989,-0.014394,-0.00962735,0.0,0 STARLINK-6304,1 56778U 23078M   23319.58335648 -.00962735  00000-0 -14394-1 0  9999,2 56778  69.9996 300.2574 0003399 265.9628 329.3989 15.57548667  5996,6772.891,92.453,397.058,392.454,0.0
56778.0,STARLINK-6304,PAYLOAD,2023-11-15 22:00:00,15.56857493,0.0003549,70.0,299.338,260.9068,42.461,-0.013366,-0.00878994,0.0,0 STARLINK-6304,1 56778U 23078M   23319.91667824 -.00878994  00000-0 -13366-1 0  9991,2 56778  70.0000 299.3380 0003549 260.9068  42.4610 15.56857493  6059,6774.895,92.494,399.165,394.356,0.0
56778.0,STARLINK-6304,PAYLOAD,2023-11-16 06:00:00,15.56207337,0.0003563,69.9998,298.4195,267.9662,102.6929,-0.013968,-0.00895039,0.0,0 STARLINK-6304,1 56778U 23078M   23320.25001157 -.00895039  00000-0 -13968-1 0  9998,2 56778  69.9998 298.4195 0003563 267.9662 102.6929 15.56207337 26824,6776.782,92.533,401.062,396.233,0.0
56778.0,STARLINK-6304,PAYLOAD,2023-11-16 14:00:01,15.55584866,0.0003382,69.9997,297.5017,268.201,168.9532,-0.015307,-0.00952454,0.0,0 STARLINK-6304,1 56778U 23078M   23320.58334491 -.00952454  00000-0 -15307-1 0  9998,2 56778  69.9997 297.5017 0003382 268.2010 168.9532 15.55584866  5989,6778.59,92.57,402.748,398.163,0.0
56778.0,STARLINK-6304,PAYLOAD,2023-11-16 22:00:01,15.54906828,0.0003296,70.0003,296.5851,261.7349,241.2032,-0.014529,-0.0088781,0.0,0 STARLINK-6304,1 56778U 23078M   23320.91668981 -.00887810  00000-0 -14529-1 0  9997,2 56778  70.0003 296.5851 0003296 261.7349 241.2032 15.54906828 26924,6780.56,92.61,404.66,400.191,0.0
56778.0,STARLINK-6304,PAYLOAD,2023-11-17 14:00:01,15.53628517,0.0003112,69.9998,294.7545,263.2715,8.6919,-0.016403,-0.00963471,0.0,0 STARLINK-6304,1 56778U 23078M   23321.58334491 -.00963471  00000-0 -16403-1 0  9998,2 56778  69.9998 294.7545 0003112 263.2715   8.6919 15.53628517 27032,6784.279,92.686,408.256,404.033,0.0
56778.0,STARLINK-6304,PAYLOAD,2023-11-17 22:00:01,15.52953897,0.0003401,70.0002,293.8397,259.3748,76.028,-0.015697,-0.00892633,0.0,0 STARLINK-6304,1 56778U 23078M   23321.91668981 -.00892633  00000-0 -15697-1 0  9994,2 56778  70.0002 293.8397 0003401 259.3748  76.0280 15.52953897  5834,6786.244,92.727,410.417,405.801,0.0
56778.0,STARLINK-6304,PAYLOAD,2023-11-18 06:00:00,15.52298581,0.000343,70.0002,292.9265,267.107,130.8322,-0.016288,-0.00903465,0.0,0 STARLINK-6304,1 56778U 23078M   23322.25001157 -.00903465  00000-0 -16288-1 0  9991,2 56778  70.0002 292.9265 0003430 267.1070 130.8322 15.52298581 27130,6788.154,92.766,412.347,407.69,0.0
56778.0,STARLINK-6304,PAYLOAD,2023-11-18 14:00:01,15.51487051,0.0003453,69.9999,292.0142,264.4204,195.3523,-0.0069564,-0.00392868,0.0,0 STARLINK-6304,1 56778U 23078M   23322.58334491 -.00392868  00000-0 -69564-2 0  9992,2 56778  69.9999 292.0142 0003453 264.4204 195.3523 15.51487051 27186,6790.521,92.814,414.73,410.041,0.0
56778.0,STARLINK-6304,PAYLOAD,2023-11-18 22:00:00,15.51225369,0.0003419,70.0002,291.1029,260.4364,260.3829,0.00019542,0.00011331,0.0,0 STARLINK-6304,1 56778U 23078M   23322.91667824  .00011331  00000-0  19542-3 0  9991,2 56778  70.0002 291.1029 0003419 260.4364 260.3829 15.51225369 27233,6791.284,92.83,415.471,410.827,0.0
56778.0,STARLINK-6304,PAYLOAD,2023-11-19 14:00:01,15.51244994,0.0003318,69.9997,289.2801,267.0249,15.6902,-0.0009024,-0.00052858,0.0,0 STARLINK-6304,1 56778U 23078M   23323.58335648 -.00052858  00000-0 -90240-3 0  9996,2 56778  69.9997 289.2801 0003318 267.0249  15.6902 15.51244994  5944,6791.227,92.829,415.345,410.839,0.0
56778.0,STARLINK-6304,PAYLOAD,2023-11-19 22:00:00,15.51233363,0.0003364,70.0002,288.369,263.3879,80.1692,-1.9899e-05,-1.334e-05,0.0,0 STARLINK-6304,1 56778U 23078M   23323.91667824 -.00001334  00000-0 -19899-4 0  9992,2 56778  70.0002 288.3690 0003364 263.3879  80.1692 15.51233363 27393,6791.261,92.829,415.411,410.841,0.0
56778.0,STARLINK-6304,PAYLOAD,2023-11-20 14:00:01,15.5124193,0.0003336,69.9996,286.5462,269.1435,196.2502,-0.00080121,-0.00046979,0.0,0 STARLINK-6304,1 56778U 23078M   23324.58334491 -.00046979  00000-0 -80121-3 0  9996,2 56778  69.9996 286.5462 0003336 269.1435 196.2502 15.51241930  6025,6791.236,92.829,415.366,410.835,0.0
56778.0,STARLINK-6304,PAYLOAD,2023-11-20 22:00:00,15.51236461,0.0003333,70.0,285.6348,265.3022,261.0017,-0.00013856,-8.299e-05,0.0,0 STARLINK-6304,1 56778U 23078M   23324.91667824 -.00008299  00000-0 -13856-3 0  9996,2 56778  70.0000 285.6348 0003333 265.3022 261.0017 15.51236461  5938,6791.252,92.829,415.38,410.853,0.0
56778.0,STARLINK-6304,PAYLOAD,2023-11-21 06:00:00,15.51215184,0.0003306,69.9998,284.7232,274.2308,313.012,2.5356e-05,1.324e-05,0.0,0 STARLINK-6304,1 56778U 23078M   23325.25001157  .00001324  00000-0  25356-4 0  9994,2 56778  69.9998 284.7232 0003306 274.2308 313.0120 15.51215184 27609,6791.314,92.83,415.424,410.934,0.0
56778.0,STARLINK-6304,PAYLOAD,2023-11-21 14:00:01,15.51215536,0.000318,69.9995,283.8119,272.6577,15.4805,-0.00020447,-0.00012153,0.0,0 STARLINK-6304,1 56778U 23078M   23325.58334491 -.00012153  00000-0 -20447-3 0  9999,2 56778  69.9995 283.8119 0003180 272.6577  15.4805 15.51215536  6038,6791.313,92.83,415.338,411.018,0.0
56778.0,STARLINK-6304,PAYLOAD,2023-11-22 00:00:00,15.51270847,0.0003262,69.9998,282.673,269.4983,184.7579,-0.0010013,-0.00058644,0.0,0 STARLINK-6304,1 56778U 23078M   23326.00001157 -.00058644  00000-0 -10013-2 0  9999,2 56778  69.9998 282.6730 0003262 269.4983 184.7579 15.51270847  6004,6791.152,92.827,415.232,410.801,0.0
56778.0,STARLINK-6304,PAYLOAD,2023-11-22 07:19:59,15.51232343,0.0002999,69.9985,281.839,260.9389,99.1458,1.4975e-05,7.15e-06,0.0,0 STARLINK-6304,1 56778U 23078M   23326.30555423  .00000715  00000-0  14975-4 0  9999,2 56778  69.9985 281.8390 0002999 260.9389  99.1458 15.51232343 27765,6791.264,92.829,415.166,411.092,0.0
56778.0,STARLINK-6304,PAYLOAD,2023-11-23 00:21:26,15.51223844,0.0003006,69.9985,279.9012,257.8957,102.1893,1.3384e-05,6.21e-06,0.0,0 STARLINK-6304,1 56778U 23078M   23327.01488665  .00000621  00000-0  13384-4 0  9990,2 56778  69.9985 279.9012 0003006 257.8957 102.1893 15.51223844 27876,6791.289,92.83,415.195,411.112,0.0
